[Satellite]
VERSION=1.1
NAME=CHINASAT 16 (SJ-13)
NICKNAME=CHINASAT 16 (SJ-13)
TLE1=1 42662U 17018A   17185.90651074 -.00000357  00000-0  00000-0 0  9997
TLE2=2 42662   0.0119  65.8564 0004975 144.6759 149.4308  1.00269574   955
